0 FENGYUN 1C DEB
1 31243U 99025BLZ 13281.91571118  .00000529  00000-0  39073-3 0  7052
2 31243 099.2003 331.8848 0063258 282.2963 077.1725 13.99088063333385
0 FENGYUN 1C DEB
1 31243U 99025BLZ 13281.94046446  .00000991  00000-0  70420-3 0  7061
2 31243 099.2020 331.9151 0063137 281.2047 202.8800 13.99090654333380
0 FENGYUN 1C DEB
1 31243U 99025BLZ 13289.36475815  .00001213  00000-0  85504-3 0  7080
2 31243 099.1997 339.3713 0063091 261.1573 156.9080 13.99108173334429
0 FENGYUN 1C DEB
1 31243U 99025BLZ 13291.36704981  .00001184  00000-0  83506-3 0  7090
2 31243 099.2014 341.3837 0063196 255.7363 161.9685 13.99112633334706
0 FENGYUN 1C DEB
1 31243U 99025BLZ 13294.37114705  .00001209  00000-0  85195-3 0  7109
2 31243 099.1998 344.3969 0063399 247.4486 173.1144 13.99121724335127
